{"type": "FeatureCollection", "features": [ {"type": "Feature", "properties": {"norad_id": 40233, "name": "COSMOS 2251 DEB", "group": "cosmos-2251-debris", "lat": -61.066477038531424, "lon": -71.31687368600268, "alt_km": 707.8863967615407, "timestamp": "2025-12-26T05:31:12.904766+00:00", "meta": {"OBJECT_NAME": "COSMOS 2251 DEB", "OBJECT_ID": "1993-036BVN", "EPOCH": "2025-12-25T05:21:19.677024", "MEAN_MOTION": 14.58549928, "ECCENTRICITY": 0.004418, "INCLINATION": 73.9403, "RA_OF_ASC_NODE": 79.204, "ARG_OF_PERICENTER": 151.4765, "MEAN_ANOMALY": 208.8831, "EPHEMERIS_TYPE": 0, "CLASSIFICATION_TYPE": "U", "NORAD_CAT_ID": 40233, "ELEMENT_SET_NO": 999, "REV_AT_EPOCH": 59319, "BSTAR": 0.0011641, "MEAN_MOTION_DOT": 5.46e-05, "MEAN_MOTION_DDOT": 0}, "tle": {"line1": "1 40233U 93036BVN 25359.22314441  .00005460  00000+0  11641-2 0  9997", "line2": "2 40233  73.9403  79.2040 0044180 151.4765 208.8831 14.58549928593190"}}, "geometry": {"type": "Point", "coordinates": [-71.31687368600268, -61.066477038531424]}}, {"type": "Feature", "properties": {"norad_id": 40236, "name": "COSMOS 2251 DEB", "group": "cosmos-2251-debris", "lat": -71.22518828791418, "lon": 62.04655547116476, "alt_km": 1099.112500135443, "timestamp": "2025-12-26T05:31:12.904775+00:00", "meta": {"OBJECT_NAME": "COSMOS 2251 DEB", "OBJECT_ID": "1993-036BVR", "EPOCH": "2025-12-07T17:52:23.026080", "MEAN_MOTION": 13.24639967, "ECCENTRICITY": 0.05366128, "INCLINATION": 73.5349, "RA_OF_ASC_NODE": 151.6266, "ARG_OF_PERICENTER": 32.3576, "MEAN_ANOMALY": 330.9258, "EPHEMERIS_TYPE": 0, "CLASSIFICATION_TYPE": "U", "NORAD_CAT_ID": 40236, "ELEMENT_SET_NO": 999, "REV_AT_EPOCH": 53558, "BSTAR": 0.0015786255, "MEAN_MOTION_DOT": 1.455e-05, "MEAN_MOTION_DDOT": 0}, "tle": {"line1": "1 40236U 93036BVR 25341.74471095  .00001455  00000+0  15786-2 0  9991", "line2": "2 40236  73.5349 151.6266 0536612  32.3576 330.9258 13.24639967535580"}}, "geometry": {"type": "Point", "coordinates": [62.04655547116476, -71.22518828791418]}}, {"type": "Feature", "properties": {"norad_id": 40238, "name": "COSMOS 2251 DEB", "group": "cosmos-2251-debris", "lat": 42.923173903788495, "lon": 58.369801081080745, "alt_km": 807.5918488960378, "timestamp": "2025-12-26T05:31:12.904785+00:00", "meta": {"OBJECT_NAME": "COSMOS 2251 DEB", "OBJECT_ID": "1993-036BVT", "EPOCH": "2025-12-24T09:50:08.146464", "MEAN_MOTION": 13.25148444, "ECCENTRICITY": 0.05498783, "INCLINATION": 73.9883, "RA_OF_ASC_NODE": 45.6762, "ARG_OF_PERICENTER": 15.0985, "MEAN_ANOMALY": 346.58, "EPHEMERIS_TYPE": 0, "CLASSIFICATION_TYPE": "U", "NORAD_CAT_ID": 40238, "ELEMENT_SET_NO": 999, "REV_AT_EPOCH": 54191, "BSTAR": 0.0017336803, "MEAN_MOTION_DOT": 1.683e-05, "MEAN_MOTION_DDOT": 0}, "tle": {"line1": "1 40238U 93036BVT 25358.40981651  .00001683  00000+0  17337-2 0  9995", "line2": "2 40238  73.9883  45.6762 0549878  15.0985 346.5800 13.25148444541918"}}, "geometry": {"type": "Point", "coordinates": [58.369801081080745, 42.923173903788495]}}, {"type": "Feature", "properties": {"norad_id": 40239, "name": "COSMOS 2251 DEB", "group": "cosmos-2251-debris", "lat": 11.840545312185235, "lon": -106.5556551605554, "alt_km": 629.0492218971713, "timestamp": "2025-12-26T05:31:12.904795+00:00", "meta": {"OBJECT_NAME": "COSMOS 2251 DEB", "OBJECT_ID": "1993-036BVU", "EPOCH": "2025-12-23T23:20:18.364128", "MEAN_MOTION": 14.62039549, "ECCENTRICITY": 0.008546, "INCLINATION": 74.0319, "RA_OF_ASC_NODE": 254.3246, "ARG_OF_PERICENTER": 2.8488, "MEAN_ANOMALY": 11.8068, "EPHEMERIS_TYPE": 0, "CLASSIFICATION_TYPE": "U", "NORAD_CAT_ID": 40239, "ELEMENT_SET_NO": 999, "REV_AT_EPOCH": 59775, "BSTAR": 0.00037675, "MEAN_MOTION_DOT": 1.96e-05, "MEAN_MOTION_DDOT": 0}, "tle": {"line1": "1 40239U 93036BVU 25357.97243477  .00001960  00000+0  37675-3 0  9990", "line2": "2 40239  74.0319 254.3246 0085460   2.8488  11.8068 14.62039549597753"}}, "geometry": {"type": "Point", "coordinates": [-106.5556551605554, 11.840545312185235]}}, {"type": "Feature", "properties": {"norad_id": 40792, "name": "COSMOS 2251 DEB", "group": "cosmos-2251-debris", "lat": 73.93019770024085, "lon": 104.6943340123734, "alt_km": 652.4620371963329, "timestamp": "2025-12-26T05:31:12.904805+00:00", "meta": {"OBJECT_NAME": "COSMOS 2251 DEB", "OBJECT_ID": "1993-036BVV", "EPOCH": "2025-12-21T09:02:29.575680", "MEAN_MOTION": 14.67648102, "ECCENTRICITY": 0.00147404, "INCLINATION": 74.0452, "RA_OF_ASC_NODE": 30.785, "ARG_OF_PERICENTER": 133.0098, "MEAN_ANOMALY": 243.0806, "EPHEMERIS_TYPE": 0, "CLASSIFICATION_TYPE": "U", "NORAD_CAT_ID": 40792, "ELEMENT_SET_NO": 999, "REV_AT_EPOCH": 63311, "BSTAR": 0.00064575886, "MEAN_MOTION_DOT": 3.648e-05, "MEAN_MOTION_DDOT": 0}, "tle": {"line1": "1 40792U 93036BVV 25355.37673120  .00003648  00000+0  64576-3 0  9993", "line2": "2 40792  74.0452  30.7850 0014740 133.0098 243.0806 14.67648102633115"}}, "geometry": {"type": "Point", "coordinates": [104.6943340123734, 73.93019770024085]}}, {"type": "Feature", "properties": {"norad_id": 40794, "name": "COSMOS 2251 DEB", "group": "cosmos-2251-debris", "lat": -48.530403065728784, "lon": 78.01927857973028, "alt_km": 587.6998620371032, "timestamp": "2025-12-26T05:31:12.904815+00:00", "meta": {"OBJECT_NAME": "COSMOS 2251 DEB", "OBJECT_ID": "1993-036BVX", "EPOCH": "2025-12-24T01:30:51.702624", "MEAN_MOTION": 14.94031865, "ECCENTRICITY": 0.00097276, "INCLINATION": 73.9771, "RA_OF_ASC_NODE": 101.3724, "ARG_OF_PERICENTER": 255.1473, "MEAN_ANOMALY": 282.9356, "EPHEMERIS_TYPE": 0, "CLASSIFICATION_TYPE": "U", "NORAD_CAT_ID": 40794, "ELEMENT_SET_NO": 999, "REV_AT_EPOCH": 62093, "BSTAR": 0.0045652942, "MEAN_MOTION_DOT": 0.00049073, "MEAN_MOTION_DDOT": 0}, "tle": {"line1": "1 40794U 93036BVX 25358.06309841  .00049073  00000+0  45653-2 0  9996", "line2": "2 40794  73.9771 101.3724 0009727 255.1473 282.9356 14.94031865620936"}}, "geometry": {"type": "Point", "coordinates": [78.01927857973028, -48.530403065728784]}}, {"type": "Feature", "properties": {"norad_id": 40796, "name": "COSMOS 2251 DEB", "group": "cosmos-2251-debris", "lat": 44.75830509766473, "lon": -81.0128096331614, "alt_km": 636.7499449369188, "timestamp": "2025-12-26T05:31:12.904824+00:00", "meta": {"OBJECT_NAME": "COSMOS 2251 DEB", "OBJECT_ID": "1993-036BVZ", "EPOCH": "2025-12-25T14:24:28.554336", "MEAN_MOTION": 14.81886301, "ECCENTRICITY": 0.0055947, "INCLINATION": 74.0131, "RA_OF_ASC_NODE": 116.7484, "ARG_OF_PERICENTER": 251.1675, "MEAN_ANOMALY": 124.4189, "EPHEMERIS_TYPE": 0, "CLASSIFICATION_TYPE": "U", "NORAD_CAT_ID": 40796, "ELEMENT_SET_NO": 999, "REV_AT_EPOCH": 76349, "BSTAR": 0.0011083, "MEAN_MOTION_DOT": 8.987e-05, "MEAN_MOTION_DDOT": 0}, "tle": {"line1": "1 40796U 93036BVZ 25359.60033049  .00008987  00000+0  11083-2 0  9992", "line2": "2 40796  74.0131 116.7484 0055947 251.1675 124.4189 14.81886301763490"}}, "geometry": {"type": "Point", "coordinates": [-81.0128096331614, 44.75830509766473]}}, {"type": "Feature", "properties": {"norad_id": 40797, "name": "COSMOS 2251 DEB", "group": "cosmos-2251-debris", "lat": -20.43829174348424, "lon": -106.62737964892652, "alt_km": 570.94839746653, "timestamp": "2025-12-26T05:31:12.904834+00:00", "meta": {"OBJECT_NAME": "COSMOS 2251 DEB", "OBJECT_ID": "1993-036BWA", "EPOCH": "2025-12-21T22:58:09.286752", "MEAN_MOTION": 15.11502821, "ECCENTRICITY": 0.00722284, "INCLINATION": 73.9213, "RA_OF_ASC_NODE": 76.1019, "ARG_OF_PERICENTER": 345.6422, "MEAN_ANOMALY": 14.2715, "EPHEMERIS_TYPE": 0, "CLASSIFICATION_TYPE": "U", "NORAD_CAT_ID": 40797, "ELEMENT_SET_NO": 999, "REV_AT_EPOCH": 64783, "BSTAR": 0.00074206778, "MEAN_MOTION_DOT": 0.00013364, "MEAN_MOTION_DDOT": 0}, "tle": {"line1": "1 40797U 93036BWA 25355.95705193  .00013364  00000+0  74207-3 0  9996", "line2": "2 40797  73.9213  76.1019 0072228 345.6422  14.2715 15.11502821647839"}}, "geometry": {"type": "Point", "coordinates": [-106.62737964892652, -20.43829174348424]}}, {"type": "Feature", "properties": {"norad_id": 40799, "name": "COSMOS 2251 DEB", "group": "cosmos-2251-debris", "lat": -30.85563568690353, "lon": -99.18160779400003, "alt_km": 592.6409122336636, "timestamp": "2025-12-26T05:31:12.904844+00:00", "meta": {"OBJECT_NAME": "COSMOS 2251 DEB", "OBJECT_ID": "1993-036BWC", "EPOCH": "2025-12-22T21:57:46.533888", "MEAN_MOTION": 14.96749899, "ECCENTRICITY": 0.0119411, "INCLINATION": 73.9268, "RA_OF_ASC_NODE": 77.6461, "ARG_OF_PERICENTER": 317.3719, "MEAN_ANOMALY": 41.8243, "EPHEMERIS_TYPE": 0, "CLASSIFICATION_TYPE": "U", "NORAD_CAT_ID": 40799, "ELEMENT_SET_NO": 999, "REV_AT_EPOCH": 50129, "BSTAR": 0.0004483, "MEAN_MOTION_DOT": 5.887e-05, "MEAN_MOTION_DDOT": 0}, "tle": {"line1": "1 40799U 93036BWC 25356.91512192  .00005887  00000+0  44830-3 0  9990", "line2": "2 40799  73.9268  77.6461 0119411 317.3719  41.8243 14.96749899501290"}}, "geometry": {"type": "Point", "coordinates": [-99.18160779400003, -30.85563568690353]}}, {"type": "Feature", "properties": {"norad_id": 40802, "name": "COSMOS 2251 DEB", "group": "cosmos-2251-debris", "lat": 52.794694369592335, "lon": 148.68960794205927, "alt_km": 673.9779305796901, "timestamp": "2025-12-26T05:31:12.904853+00:00", "meta": {"OBJECT_NAME": "COSMOS 2251 DEB", "OBJECT_ID": "1993-036BWF", "EPOCH": "2025-12-23T15:31:23.351520", "MEAN_MOTION": 14.77722867, "ECCENTRICITY": 0.00628376, "INCLINATION": 74.0411, "RA_OF_ASC_NODE": 131.6125, "ARG_OF_PERICENTER": 228.2814, "MEAN_ANOMALY": 131.2977, "EPHEMERIS_TYPE": 0, "CLASSIFICATION_TYPE": "U", "NORAD_CAT_ID": 40802, "ELEMENT_SET_NO": 999, "REV_AT_EPOCH": 64570, "BSTAR": 0.00086100359, "MEAN_MOTION_DOT": 6.349e-05, "MEAN_MOTION_DDOT": 0}, "tle": {"line1": "1 40802U 93036BWF 25357.64679805  .00006349  00000+0  86100-3 0  9991", "line2": "2 40802  74.0411 131.6125 0062837 228.2814 131.2977 14.77722867645708"}}, "geometry": {"type": "Point", "coordinates": [148.68960794205927, 52.794694369592335]}}]}